STARLINK-2606           
1 48386U 21038AK  21285.52242095  .00002575  00000-0  19170-3 0  9990
2 48386  53.0582  10.4434 0001076 113.0336 247.0767 15.06403014 24699
STARLINK-2600           
1 48387U 21038AL  21285.55560189  .00001368  00000-0  11069-3 0  9999
2 48387  53.0578  10.2974 0000868 115.8627 244.2451 15.06400576 24704
STARLINK-2594           
1 48388U 21038AM  21285.48282421 -.00001169  00000-0 -59587-4 0  9991
2 48388  53.0566  10.6157 0001097 115.5130 244.5973 15.06394583 25286
STARLINK-1904           
1 48389U 21038AN  21285.53672868  .00000976  00000-0  84399-4 0  9998
2 48389  53.0549   5.3729 0000999 111.4822 248.6274 15.06403319 24766
STARLINK-2586           
1 48390U 21038AP  21285.53304183  .00000253  00000-0  35871-4 0  9991
2 48390  53.0566   5.3951 0000847 116.5903 243.5173 15.06403124 25354
STARLINK-2607           
1 48391U 21038AQ  21285.52935458  .00000674  00000-0  64157-4 0  9992
2 48391  53.0567   5.4127 0001236 119.9644 240.1467 15.06404454 25989
STARLINK-2605           
1 48392U 21038AR  21285.52566132 -.00006599  00000-0 -42413-3 0  9996
2 48392  53.0572   5.4259 0001353 110.3279 249.7855 15.06435343 25359
STARLINK-2602           
1 48393U 21038AS  21285.52198807  .00000404  00000-0  45986-4 0  9993
2 48393  53.0581   5.4455 0001116 109.7097 250.4013 15.06398504 25357
STARLINK-2573           
1 48394U 21038AT  21285.51830007 -.00000510  00000-0 -15344-4 0  9993
2 48394  53.0570   5.4587 0000981 106.2354 253.8743 15.06388921 25358
STARLINK-2574           
1 48395U 21038AU  21285.50260875  .00000448  00000-0  48960-4 0  9991
2 48395  53.0564   5.5268 0001138 121.3276 238.7825 15.06405280 25356
STARLINK-2575           
1 48396U 21038AV  21285.51461742  .00002416  00000-0  18108-3 0  9996
2 48396  53.0560   5.4690 0000809 133.9523 226.1533 15.06392449 25987
STARLINK-2590           
1 48397U 21038AW  21285.51092428  .00000808  00000-0  73132-4 0  9990
2 48397  53.0579   5.4950 0001119 112.1276 247.9831 15.06410304 25989
STARLINK-2588           
1 48398U 21038AX  21285.50723536  .00000259  00000-0  36236-4 0  9995
2 48398  53.0575   5.5104 0000966 120.2724 239.8361 15.06404734 25983
STARLINK-2587           
1 48399U 21038AY  21285.50355042 -.00000619  00000-0 -22690-4 0  9990
2 48399  53.0576   5.5308 0000932 121.4380 238.6700 15.06399113 25972
STARLINK-2576           
1 48400U 21038AZ  21285.49987221  .00002216  00000-0  16760-3 0  9994
2 48400  53.0576   5.5433 0001274 115.9971 244.1149 15.06404559 24764
STARLINK-2571           
1 48401U 21038BA  21285.53578756  .00001183  00000-0  98316-4 0  9999
2 48401  53.0561   5.3861 0000822  91.0806 269.0278 15.06399605 24765
STARLINK-2560           
1 48402U 21038BB  21285.49618673  .00001221  00000-0  10081-3 0  9993
2 48402  53.0576   5.5623 0000930 127.0603 233.0471 15.06402851 24769
STARLINK-2561           
1 48403U 21038BC  21285.49249566  .00002563  00000-0  19084-3 0  9997
2 48403  53.0572   5.5745 0000948 102.0943 258.0153 15.06407078 24760
STARLINK-2593           
1 48404U 21038BD  21285.48880786  .00000484  00000-0  51350-4 0  9995
2 48404  53.0579   5.5963 0001289 118.8838 241.2280 15.06405133 24762
STARLINK-2570           
1 48405U 21038BE  21285.48512915  .00000297  00000-0  38825-4 0  9996
2 48405  53.0577   5.6115 0001013 122.5059 237.6028 15.06399552 24769
STARLINK-2568           
1 48406U 21038BF  21285.48143893  .00000543  00000-0  55316-4 0  9990
2 48406  53.0567   5.6227 0001125 121.5851 238.5248 15.06401521 24760
STARLINK-2595           
1 48407U 21038BG  21285.47775376  .00001183  00000-0  98274-4 0  9998
2 48407  53.0511   5.6574 0000877 121.2337 238.8738 15.06403280 24754
STARLINK-2592           
1 48408U 21038BH  21285.54041794  .00000987  00000-0  85131-4 0  9996
2 48408  53.0545   5.3599 0001149 111.2804 248.8308 15.06391394 24764
STARLINK-2596           
1 48409U 21038BJ  21285.49758057  .00003366  00000-0  24473-3 0  9993
2 48409  53.0570  10.5544 0001090 115.3464 244.7638 15.06400879 25281
STARLINK-2563           
1 48410U 21038BK  21286.00001157 -.01109719  00000-0 -12804-1 0  9990
2 48410  53.0470 323.2062 0001273  70.2745  83.7623 15.63826772  3676
STARLINK-2505           
1 48411U 21038BL  21286.00001157  .00061961  00000-0  44167-3 0  9993
2 48411  53.0482 323.0281 0004720 336.9511 244.7787 15.73236322  3693
STARLINK-2581           
1 48412U 21038BM  21286.00001157  .00125477  00000-0  88480-3 0  9993
2 48412  53.0483 323.0304 0005370 330.8421 251.5533 15.73190728  3678
YAOGAN-30 X             
1 48423U 21039A   21286.23843967  .00000510  00000-0  54646-4 0  9992
2 48423  34.9999 240.5341 0005539  38.5421 321.5685 14.90012209 23788
YAOGAN-30 Y             
1 48424U 21039B   21286.21592892  .00000504  00000-0  53998-4 0  9991
2 48424  34.9982 240.3372 0004930 161.3969 198.6921 14.90014298 23785
YAOGAN-30 Z             
1 48425U 21039C   21286.05963336  .00000514  00000-0  55010-4 0  9997
2 48425  34.9987 240.9574 0002880  67.4572 292.6433 14.90012301 23774
TIANQI-12               
1 48426U 21039D   21286.05815035  .00000415  00000-0  43343-4 0  9996
2 48426  35.0070 239.1711 0004749 189.3399 170.7223 14.91505854 23763
STARLINK-2461           
1 48428U 21040A   21286.07624668  .00000701  00000-0  65943-4 0  9990
2 48428  53.0555 207.9539 0001594  74.5687 285.5478 15.06402082 25387
STARLINK-2749           
1 48429U 21040B   21286.25001157  .00009214  00000-0  63669-3 0  9993
2 48429  53.0537 177.1715 0001975  52.2210 340.8181 15.06396476 25824
STARLINK-2729           
1 48430U 21040C   21286.00001157 -.00002086  00000-0 -12116-3 0  9991
2 48430  53.0521 178.2950 0002095  64.0090 232.5144 15.06402009  3612
STARLINK-2700           
1 48431U 21040D   21286.25001157  .00064081  00000-0  42885-2 0  9995
2 48431  53.0430 172.1709 0001596  56.0857  84.4077 15.06343431 25069
STARLINK-2680           
1 48432U 21040E   21286.00001157 -.01070348  00000-0 -50971-1 0  9999
2 48432  53.0481 168.6560 0001309  66.3519 279.7987 15.21736447  3674
STARLINK-2699           
1 48433U 21040F   21286.25001157 -.00008834  00000-0 -57476-3 0  9996
2 48433  53.0500 172.1835 0001821  43.7901 276.7511 15.06407863 25220
STARLINK-2692           
1 48434U 21040G   21286.25001157  .00001576  00000-0  12465-3 0  9990
2 48434  53.0624 177.1225 0001923  56.8293 216.2163 15.06409815 25005
STARLINK-2633           
1 48435U 21040H   21285.14760341 -.00000175  00000-0  72002-5 0  9995
2 48435  53.0545 190.2556 0001892  73.5741 286.5455 15.04772777 24269
STARLINK-2639           
1 48436U 21040J   21286.04538746 -.00001086  00000-0 -53984-4 0  9998
2 48436  53.0547 203.0981 0001919  71.4146 288.7052 15.06400503 24616
STARLINK-2642           
1 48437U 21040K   21286.11523164  .00004906  00000-0  36340-3 0  9993
2 48437  53.0551 212.5724 0001934  65.6490 294.4700 15.04762201 25323
STARLINK-2640           
1 48438U 21040L   21285.84265861  .00002802  00000-0  20695-3 0  9999
2 48438  53.0540 204.0142 0001959  62.7237 297.3951 15.06401712 24133
STARLINK-2583           
1 48439U 21040M   21285.77262316  .00001607  00000-0  12670-3 0  9990
2 48439  53.0567 204.3295 0001798  72.6589 287.4596 15.06410533 24121
STARLINK-2682           
1 48440U 21040N   21285.50355100  .00000964  00000-0  83625-4 0  9991
2 48440  53.0547 205.5199 0001893  69.3889 290.7303 15.06404624 24531
STARLINK-2702           
1 48441U 21040P   21286.03064464  .00001403  00000-0  11305-3 0  9995
2 48441  53.0563 203.1540 0001870  78.8248 281.2951 15.06402141 25440
STARLINK-2644           
1 48442U 21040Q   21286.09330736 -.00000724  00000-0 -29683-4 0  9996
2 48442  53.0547 202.8735 0001704  66.6596 293.4573 15.06399259 25453
STARLINK-2663           
1 48443U 21040R   21286.08962334  .00002262  00000-0  17080-3 0  9995
2 48443  53.0553 202.8882 0001828  72.0532 288.0656 15.06381163 25459
STARLINK-2645           
1 48444U 21040S   21285.48881149  .00001072  00000-0  90873-4 0  9993
2 48444  53.0550 205.5889 0001800  63.0374 297.0798 15.06402337 24080
STARLINK-2634           
1 48445U 21040T   21285.48512570  .00001735  00000-0  13535-3 0  9998
2 48445  53.0566 205.6034 0001767  66.0806 294.0368 15.06406184 25362
STARLINK-2247           
1 48446U 21040U   21285.74682240  .00001084  00000-0  91660-4 0  9993
2 48446  53.0554 204.4312 0001796  67.8251 292.2929 15.06410876 24120
STARLINK-2269           
1 48447U 21040V   21285.47774855  .00002087  00000-0  15893-3 0  9995
2 48447  53.0561 205.6351 0001662  70.9118 289.2051 15.06402779 24084
STARLINK-2632           
1 48448U 21040W   21286.03338296  .00000990  00000-0  85358-4 0  9999
2 48448  53.0541 203.1398 0001656  82.2855 277.8322 15.06403283 25439
STARLINK-2655           
1 48449U 21040X   21286.07118423  .00001353  00000-0  10975-3 0  9998
2 48449  53.0560 202.9718 0001803  65.2028 294.9148 15.06399139 25453
STARLINK-2660           
1 48450U 21040Y   21285.47038036 -.00000846  00000-0 -37912-4 0  9993
2 48450  53.0560 205.6676 0001568  63.7516 296.3634 15.06413421 25368
STARLINK-2652           
1 48451U 21040Z   21285.73207457  .00000666  00000-0  63626-4 0  9997
2 48451  53.0561 204.4934 0001768  63.4679 296.6492 15.06397300 24128
STARLINK-2703           
1 48452U 21040AA  21285.73481746  .00000218  00000-0  33565-4 0  9995
2 48452  53.0559 204.4821 0001638  78.7566 281.3607 15.06407054 24128
STARLINK-2620           
1 48453U 21040AB  21286.06012835  .00000975  00000-0  84315-4 0  9991
2 48453  53.0548 203.0231 0001767  70.2271 289.8908 15.06407358 25451
STARLINK-2654           
1 48454U 21040AC  21286.05643961  .00000696  00000-0  65647-4 0  9998
2 48454  53.0559 203.0368 0001805  65.6031 294.5146 15.06397620 25457
STARLINK-2497           
1 48455U 21040AD  21286.05275853  .00002142  00000-0  16266-3 0  9990
2 48455  53.0516 203.0681 0001760  68.2178 291.8998 15.06402922 24771
